OBJECT_NAME,OBJECT_ID,EPOCH,MEAN_MOTION,ECCENTRICITY,INCLINATION,RA_OF_ASC_NODE,ARG_OF_PERICENTER,MEAN_ANOMALY,EPHEMERIS_TYPE,CLASSIFICATION_TYPE,NORAD_CAT_ID,ELEMENT_SET_NO,REV_AT_EPOCH,BSTAR,MEAN_MOTION_DOT,MEAN_MOTION_DDOT
GEOSCAN 3 (RS92S3),2025-155T,2026-07-17T22:39:04.330368,15.36368898,.00085071,97.4558,169.2049,80.1588,280.0616,0,U,64893,999,8557,.30656753E-3,.10806E-3,0
INNOSAT 3 (RS92S0),2025-155U,2026-07-17T22:46:00.762816,15.45955074,.00080888,97.4503,171.2341,84.0770,276.1401,0,U,64894,999,8571,.52291704E-3,.25455E-3,0
KNACKSAT-2,1998-067XZ,2026-07-17T05:47:37.449888,15.62548905,.0007952,51.6276,143.0009,335.1166,24.9444,0,U,67683,999,2497,.37883E-3,.34112E-3,0
