GEOSCAN-3 (RS92S3)
1 64893U 25155T   26198.94380012  .00010806  00000-0  30657-3 0  9990
2 64893  97.4558 169.2049 0008507  80.1588 280.0616 15.36368898 85576
INNOSAT3 (RS92S0)
1 64894U 25155U   26198.94861994  .00025455  00000-0  52292-3 0  9999
2 64894  97.4503 171.2341 0008089  84.0770 276.1401 15.45955074 85718
KNACKSAT-2
1 67683U 98067XZ  26198.24140567  .00034112  00000-0  37883-3 0  9998
2 67683  51.6276 143.0009 0007952 335.1166  24.9444 15.62548905 24978
